ONEWEB-0273             
1 48991U 21060AA  24017.57446620  .00000322  00000+0  80780-3 0  9990
2 48991  87.9048  44.2384 0002120  95.4977 264.6396 13.16593360123582
ONEWEB-0274             
1 48992U 21060AB  24017.59978698  .00000139  00000+0  33019-3 0  9997
2 48992  87.9048  44.2369 0001763 112.9102 247.2215 13.16594917123624
ONEWEB-0275             
1 48993U 21060AC  24017.58870907  .00000083  00000+0  18462-3 0  9994
2 48993  87.9042  44.2328 0002005  95.4343 264.7017 13.16598792123557
ONEWEB-0276             
1 48994U 21060AD  24017.84993347  .00000016  00000+0  89556-5 0  9998
2 48994  87.9051  44.1760 0002222  94.9478 265.1907 13.16598374123606
ONEWEB-0277             
1 48995U 21060AE  24017.63460326  .00000007  00000+0 -15000-4 0  9995
2 48995  87.9047  44.2575 0002371 100.4656 259.6743 13.16592700123561
ONEWEB-0279             
1 48997U 21060AG  24017.63301962 -.00000041  00000+0 -14015-3 0  9990
2 48997  87.9050  44.2145 0001830  94.5537 265.5802 13.16592383123626
ONEWEB-0280             
1 48998U 21060AH  24017.57127293 -.00000644  00000+0 -17185-2 0  9996
2 48998  87.9048  44.2263 0002393 105.4318 254.7077 13.16596193123558
